{
  "type": "FeatureCollection",
  "features": [
    {
      "type": "Feature",
      "properties": {
        "norad_id": 40545,
        "name": "GSAT0204 (GALILEO 8)",
        "group": "gnss",
        "lat": -38.1207558334656,
        "lon": -44.42486695286876,
        "alt_km": 23213.945996159488,
        "timestamp": "2025-12-22T05:49:03.741829+00:00",
        "meta_object_name": "GSAT0204 (GALILEO 8)",
        "meta_object_id": "2015-017B",
        "meta_epoch": "2025-12-20T13:26:28.826304",
        "meta_mean_motion": 1.70475697,
        "meta_eccentricity": 0.0006133,
        "meta_inclination": 56.8522,
        "meta_ra_of_asc_node": 346.4847,
        "meta_arg_of_pericenter": 266.5447,
        "meta_mean_anomaly": 93.3948,
        "meta_ephemeris_type": 0,
        "meta_classification_type": "U",
        "meta_norad_cat_id": 40545,
        "meta_element_set_no": 999,
        "meta_rev_at_epoch": 2920,
        "meta_bstar": 0,
        "meta_mean_motion_dot": -7e-07,
        "meta_mean_motion_ddot": 0,
        "tle_line1": "1 40545U 15017B   25354.56005586 -.00000070  00000+0  00000+0 0  9992",
        "tle_line2": "2 40545  56.8522 346.4847 0006133 266.5447  93.3948  1.70475697 29206"
      },
      "geometry": {
        "type": "Point",
        "coordinates": [
          -44.42486695286876,
          -38.1207558334656
        ]
      }
    },
    {
      "type": "Feature",
      "properties": {
        "norad_id": 40549,
        "name": "BEIDOU-3S IGSO-1S (C31)",
        "group": "gnss",
        "lat": -18.336406804741294,
        "lon": -78.83819408997445,
        "alt_km": 35903.60485716505,
        "timestamp": "2025-12-22T05:49:03.741843+00:00",
        "meta_object_name": "BEIDOU-3S IGSO-1S (C31)",
        "meta_object_id": "2015-019A",
        "meta_epoch": "2025-12-18T19:55:38.829792",
        "meta_mean_motion": 1.00292047,
        "meta_eccentricity": 0.0036331,
        "meta_inclination": 49.5404,
        "meta_ra_of_asc_node": 297.6395,
        "meta_arg_of_pericenter": 194.0028,
        "meta_mean_anomaly": 349.3621,
        "meta_ephemeris_type": 0,
        "meta_classification_type": "U",
        "meta_norad_cat_id": 40549,
        "meta_element_set_no": 999,
        "meta_rev_at_epoch": 3926,
        "meta_bstar": 0,
        "meta_mean_motion_dot": -1.83e-06,
        "meta_mean_motion_ddot": 0,
        "tle_line1": "1 40549U 15019A   25352.83031053 -.00000183  00000+0  00000+0 0  9999",
        "tle_line2": "2 40549  49.5404 297.6395 0036331 194.0028 349.3621  1.00292047 39264"
      },
      "geometry": {
        "type": "Point",
        "coordinates": [
          -78.83819408997445,
          -18.336406804741294
        ]
      }
    },
    {
      "type": "Feature",
      "properties": {
        "norad_id": 40730,
        "name": "GPS BIIF-10 (PRN 08)",
        "group": "gnss",
        "lat": 11.272108061265245,
        "lon": -77.34267486699936,
        "alt_km": 19892.06920144232,
        "timestamp": "2025-12-22T05:49:03.741855+00:00",
        "meta_object_name": "GPS BIIF-10 (PRN 08)",
        "meta_object_id": "2015-033A",
        "meta_epoch": "2025-12-21T17:23:51.615744",
        "meta_mean_motion": 2.00565211,
        "meta_eccentricity": 0.0111478,
        "meta_inclination": 54.1229,
        "meta_ra_of_asc_node": 274.4032,
        "meta_arg_of_pericenter": 27.0282,
        "meta_mean_anomaly": 333.5929,
        "meta_ephemeris_type": 0,
        "meta_classification_type": "U",
        "meta_norad_cat_id": 40730,
        "meta_element_set_no": 999,
        "meta_rev_at_epoch": 7643,
        "meta_bstar": 0,
        "meta_mean_motion_dot": -1.3e-07,
        "meta_mean_motion_ddot": 0,
        "tle_line1": "1 40730U 15033A   25355.72490296 -.00000013  00000+0  00000+0 0  9998",
        "tle_line2": "2 40730  54.1229 274.4032 0111478  27.0282 333.5929  2.00565211 76430"
      },
      "geometry": {
        "type": "Point",
        "coordinates": [
          -77.34267486699936,
          11.272108061265245
        ]
      }
    },
    {
      "type": "Feature",
      "properties": {
        "norad_id": 40748,
        "name": "BEIDOU-3S M2S (C58)",
        "group": "gnss",
        "lat": 52.524786291175865,
        "lon": 13.891447579000069,
        "alt_km": 21554.245548145896,
        "timestamp": "2025-12-22T05:49:03.741866+00:00",
        "meta_object_name": "BEIDOU-3S M2S (C58)",
        "meta_object_id": "2015-037A",
        "meta_epoch": "2025-12-21T01:20:10.923072",
        "meta_mean_motion": 1.86229523,
        "meta_eccentricity": 0.00119434,
        "meta_inclination": 55.0313,
        "meta_ra_of_asc_node": 308.1782,
        "meta_arg_of_pericenter": 270.3499,
        "meta_mean_anomaly": 89.5076,
        "meta_ephemeris_type": 0,
        "meta_classification_type": "U",
        "meta_norad_cat_id": 40748,
        "meta_element_set_no": 999,
        "meta_rev_at_epoch": 7080,
        "meta_bstar": 0,
        "meta_mean_motion_dot": -6.4e-07,
        "meta_mean_motion_ddot": 0,
        "tle_line1": "1 40748U 15037A   25355.05568198 -.00000064  00000+0  00000+0 0  9990",
        "tle_line2": "2 40748  55.0313 308.1782 0011943 270.3499  89.5076  1.86229523 70801"
      },
      "geometry": {
        "type": "Point",
        "coordinates": [
          13.891447579000069,
          52.524786291175865
        ]
      }
    },
    {
      "type": "Feature",
      "properties": {
        "norad_id": 40749,
        "name": "BEIDOU-3S M1S (C57)",
        "group": "gnss",
        "lat": -53.25161506013958,
        "lon": -121.35559247303298,
        "alt_km": 21529.618610070163,
        "timestamp": "2025-12-22T05:49:03.741896+00:00",
        "meta_object_name": "BEIDOU-3S M1S (C57)",
        "meta_object_id": "2015-037B",
        "meta_epoch": "2025-12-21T06:50:01.998240",
        "meta_mean_motion": 1.86253999,
        "meta_eccentricity": 0.00036481,
        "meta_inclination": 55.0276,
        "meta_ra_of_asc_node": 308.16,
        "meta_arg_of_pericenter": 1.485,
        "meta_mean_anomaly": 358.5113,
        "meta_ephemeris_type": 0,
        "meta_classification_type": "U",
        "meta_norad_cat_id": 40749,
        "meta_element_set_no": 999,
        "meta_rev_at_epoch": 7081,
        "meta_bstar": 0,
        "meta_mean_motion_dot": -6.3e-07,
        "meta_mean_motion_ddot": 0,
        "tle_line1": "1 40749U 15037B   25355.28474535 -.00000063  00000+0  00000+0 0  9996",
        "tle_line2": "2 40749  55.0276 308.1600 0003648   1.4850 358.5113  1.86253999 70812"
      },
      "geometry": {
        "type": "Point",
        "coordinates": [
          -121.35559247303298,
          -53.25161506013958
        ]
      }
    },
    {
      "type": "Feature",
      "properties": {
        "norad_id": 40889,
        "name": "GSAT0205 (GALILEO 9)",
        "group": "gnss",
        "lat": 54.72431244192262,
        "lon": -35.41721306160093,
        "alt_km": 23205.2054174057,
        "timestamp": "2025-12-22T05:49:03.741911+00:00",
        "meta_object_name": "GSAT0205 (GALILEO 9)",
        "meta_object_id": "2015-045A",
        "meta_epoch": "2025-12-20T21:57:55.201536",
        "meta_mean_motion": 1.70473188,
        "meta_eccentricity": 0.00060952,
        "meta_inclination": 55.0008,
        "meta_ra_of_asc_node": 226.5322,
        "meta_arg_of_pericenter": 41.0262,
        "meta_mean_anomaly": 319.1287,
        "meta_ephemeris_type": 0,
        "meta_classification_type": "U",
        "meta_norad_cat_id": 40889,
        "meta_element_set_no": 999,
        "meta_rev_at_epoch": 6397,
        "meta_bstar": 0,
        "meta_mean_motion_dot": 7.2e-07,
        "meta_mean_motion_ddot": 0,
        "tle_line1": "1 40889U 15045A   25354.91522224  .00000072  00000+0  00000+0 0  9997",
        "tle_line2": "2 40889  55.0008 226.5322 0006095  41.0262 319.1287  1.70473188 63971"
      },
      "geometry": {
        "type": "Point",
        "coordinates": [
          -35.41721306160093,
          54.72431244192262
        ]
      }
    },
    {
      "type": "Feature",
      "properties": {
        "norad_id": 40890,
        "name": "GSAT0206 (GALILEO 10)",
        "group": "gnss",
        "lat": -32.44042368083938,
        "lon": -159.92876462405542,
        "alt_km": 23225.601050912588,
        "timestamp": "2025-12-22T05:49:03.741923+00:00",
        "meta_object_name": "GSAT0206 (GALILEO 10)",
        "meta_object_id": "2015-045B",
        "meta_epoch": "2025-12-21T03:15:40.639392",
        "meta_mean_motion": 1.70473045,
        "meta_eccentricity": 0.0004419,
        "meta_inclination": 54.9998,
        "meta_ra_of_asc_node": 226.5212,
        "meta_arg_of_pericenter": 45.8333,
        "meta_mean_anomaly": 314.3117,
        "meta_ephemeris_type": 0,
        "meta_classification_type": "U",
        "meta_norad_cat_id": 40890,
        "meta_element_set_no": 999,
        "meta_rev_at_epoch": 6400,
        "meta_bstar": 0,
        "meta_mean_motion_dot": 7.2e-07,
        "meta_mean_motion_ddot": 0,
        "tle_line1": "1 40890U 15045B   25355.13588703  .00000072  00000+0  00000+0 0  9998",
        "tle_line2": "2 40890  54.9998 226.5212 0004419  45.8333 314.3117  1.70473045 64002"
      },
      "geometry": {
        "type": "Point",
        "coordinates": [
          -159.92876462405542,
          -32.44042368083938
        ]
      }
    }
  ]
}